[{"OBJECT_NAME":"STARLINK-6075","OBJECT_ID":"2023-046K","EPOCH":"2026-03-09T23:11:06.102240","MEAN_MOTION":15.02530441,"ECCENTRICITY":0.00013026,"INCLINATION":43.0018,"RA_OF_ASC_NODE":157.4403,"ARG_OF_PERICENTER":269.7167,"MEAN_ANOMALY":90.3526,"EPHEMERIS_TYPE":0,"CLASSIFICATION_TYPE":"U","NORAD_CAT_ID":56102,"ELEMENT_SET_NO":999,"REV_AT_EPOCH":16210,"BSTAR":-1.9428073e-5,"MEAN_MOTION_DOT":-4.66e-6,"MEAN_MOTION_DDOT":0},{"OBJECT_NAME":"RAX (USA 218)","OBJECT_ID":"2010-062B","EPOCH":"2026-03-09T23:21:07.029792","MEAN_MOTION":14.99597607,"ECCENTRICITY":0.00156448,"INCLINATION":71.9685,"RA_OF_ASC_NODE":266.5192,"ARG_OF_PERICENTER":230.5338,"MEAN_ANOMALY":129.4452,"EPHEMERIS_TYPE":0,"CLASSIFICATION_TYPE":"U","NORAD_CAT_ID":37223,"ELEMENT_SET_NO":999,"REV_AT_EPOCH":9933,"BSTAR":0.00040559866,"MEAN_MOTION_DOT":4.944e-5,"MEAN_MOTION_DDOT":0}]
